[{"OBJECT_NAME":"STARLINK-36945","OBJECT_ID":"2026-041L","EPOCH":"2026-03-12T06:00:00.999648","MEAN_MOTION":15.84666193,"ECCENTRICITY":8.327e-5,"INCLINATION":53.1589,"RA_OF_ASC_NODE":49.2491,"ARG_OF_PERICENTER":92.7516,"MEAN_ANOMALY":279.7195,"EPHEMERIS_TYPE":0,"CLASSIFICATION_TYPE":"U","NORAD_CAT_ID":68050,"ELEMENT_SET_NO":999,"REV_AT_EPOCH":278,"BSTAR":-0.0075614689,"MEAN_MOTION_DOT":-0.01567487,"MEAN_MOTION_DDOT":0},{"OBJECT_NAME":"STARLINK-35911","OBJECT_ID":"2026-041M","EPOCH":"2026-03-12T06:00:00.999648","MEAN_MOTION":15.8489608,"ECCENTRICITY":6.29e-5,"INCLINATION":53.159,"RA_OF_ASC_NODE":49.2337,"ARG_OF_PERICENTER":86.9218,"MEAN_ANOMALY":293.1789,"EPHEMERIS_TYPE":0,"CLASSIFICATION_TYPE":"U","NORAD_CAT_ID":68051,"ELEMENT_SET_NO":999,"REV_AT_EPOCH":274,"BSTAR":-0.0075154744,"MEAN_MOTION_DOT":-0.01574319,"MEAN_MOTION_DDOT":0},{"OBJECT_NAME":"STARLINK-35808","OBJECT_ID":"2026-041N","EPOCH":"2026-03-12T06:00:00.999648","MEAN_MOTION":15.85032892,"ECCENTRICITY":7.067e-5,"INCLINATION":53.1585,"RA_OF_ASC_NODE":49.225,"ARG_OF_PERICENTER":83.9546,"MEAN_ANOMALY":299.8284,"EPHEMERIS_TYPE":0,"CLASSIFICATION_TYPE":"U","NORAD_CAT_ID":68052,"ELEMENT_SET_NO":999,"REV_AT_EPOCH":274,"BSTAR":-0.0074591512,"MEAN_MOTION_DOT":-0.01573194,"MEAN_MOTION_DDOT":0},{"OBJECT_NAME":"STARLINK-36919","OBJECT_ID":"2026-041P","EPOCH":"2026-03-12T06:00:00.999648","MEAN_MOTION":15.85143924,"ECCENTRICITY":6.331e-5,"INCLINATION":53.1587,"RA_OF_ASC_NODE":49.2176,"ARG_OF_PERICENTER":80.1138,"MEAN_ANOMALY":307.446,"EPHEMERIS_TYPE":0,"CLASSIFICATION_TYPE":"U","NORAD_CAT_ID":68053,"ELEMENT_SET_NO":999,"REV_AT_EPOCH":278,"BSTAR":-0.0073910912,"MEAN_MOTION_DOT":-0.01567978,"MEAN_MOTION_DDOT":0},{"OBJECT_NAME":"STARLINK-36924","OBJECT_ID":"2026-041Q","EPOCH":"2026-03-12T06:00:00.999648","MEAN_MOTION":15.85386221,"ECCENTRICITY":9.136e-5,"INCLINATION":53.1583,"RA_OF_ASC_NODE":49.2029,"ARG_OF_PERICENTER":115.3969,"MEAN_ANOMALY":279.4164,"EPHEMERIS_TYPE":0,"CLASSIFICATION_TYPE":"U","NORAD_CAT_ID":68054,"ELEMENT_SET_NO":999,"REV_AT_EPOCH":278,"BSTAR":-0.0070749688,"MEAN_MOTION_DOT":-0.01524874,"MEAN_MOTION_DDOT":0},{"OBJECT_NAME":"STARLINK-35998","OBJECT_ID":"2026-041R","EPOCH":"2026-03-12T06:00:00.999648","MEAN_MOTION":15.85298269,"ECCENTRICITY":7.515e-5,"INCLINATION":53.1586,"RA_OF_ASC_NODE":49.2099,"ARG_OF_PERICENTER":86.9636,"MEAN_ANOMALY":304.1694,"EPHEMERIS_TYPE":0,"CLASSIFICATION_TYPE":"U","NORAD_CAT_ID":68055,"ELEMENT_SET_NO":999,"REV_AT_EPOCH":274,"BSTAR":-0.0073613429,"MEAN_MOTION_DOT":-0.01572889,"MEAN_MOTION_DDOT":0},{"OBJECT_NAME":"STARLINK-36845","OBJECT_ID":"2026-041S","EPOCH":"2026-03-12T06:00:00.999648","MEAN_MOTION":15.85568527,"ECCENTRICITY":7.739e-5,"INCLINATION":53.158,"RA_OF_ASC_NODE":49.1953,"ARG_OF_PERICENTER":80.7232,"MEAN_ANOMALY":317.6689,"EPHEMERIS_TYPE":0,"CLASSIFICATION_TYPE":"U","NORAD_CAT_ID":68056,"ELEMENT_SET_NO":999,"REV_AT_EPOCH":278,"BSTAR":-0.0072674474,"MEAN_MOTION_DOT":-0.01573448,"MEAN_MOTION_DDOT":0},{"OBJECT_NAME":"STARLINK-36954","OBJECT_ID":"2026-041T","EPOCH":"2026-03-12T06:00:00.999648","MEAN_MOTION":15.85699168,"ECCENTRICITY":6.951e-5,"INCLINATION":53.1582,"RA_OF_ASC_NODE":49.1877,"ARG_OF_PERICENTER":86.138,"MEAN_ANOMALY":315.8804,"EPHEMERIS_TYPE":0,"CLASSIFICATION_TYPE":"U","NORAD_CAT_ID":68057,"ELEMENT_SET_NO":999,"REV_AT_EPOCH":278,"BSTAR":-0.0072282232,"MEAN_MOTION_DOT":-0.01574764,"MEAN_MOTION_DDOT":0},{"OBJECT_NAME":"STARLINK-36899","OBJECT_ID":"2026-041U","EPOCH":"2026-03-12T06:00:00.999648","MEAN_MOTION":15.85851534,"ECCENTRICITY":5.957e-5,"INCLINATION":53.1583,"RA_OF_ASC_NODE":49.1809,"ARG_OF_PERICENTER":83.4365,"MEAN_ANOMALY":322.0185,"EPHEMERIS_TYPE":0,"CLASSIFICATION_TYPE":"U","NORAD_CAT_ID":68058,"ELEMENT_SET_NO":999,"REV_AT_EPOCH":278,"BSTAR":-0.0071267318,"MEAN_MOTION_DOT":-0.01565531,"MEAN_MOTION_DDOT":0},{"OBJECT_NAME":"STARLINK-36917","OBJECT_ID":"2026-041V","EPOCH":"2026-03-12T06:00:00.999648","MEAN_MOTION":15.85956875,"ECCENTRICITY":6.184e-5,"INCLINATION":53.1579,"RA_OF_ASC_NODE":49.1733,"ARG_OF_PERICENTER":92.0994,"MEAN_ANOMALY":317.1247,"EPHEMERIS_TYPE":0,"CLASSIFICATION_TYPE":"U","NORAD_CAT_ID":68059,"ELEMENT_SET_NO":999,"REV_AT_EPOCH":278,"BSTAR":-0.0071060929,"MEAN_MOTION_DOT":-0.01568684,"MEAN_MOTION_DDOT":0},{"OBJECT_NAME":"STARLINK-36959","OBJECT_ID":"2026-041W","EPOCH":"2026-03-12T06:00:00.999648","MEAN_MOTION":15.86104126,"ECCENTRICITY":7.343e-5,"INCLINATION":53.158,"RA_OF_ASC_NODE":49.1652,"ARG_OF_PERICENTER":77.162,"MEAN_ANOMALY":335.5126,"EPHEMERIS_TYPE":0,"CLASSIFICATION_TYPE":"U","NORAD_CAT_ID":68060,"ELEMENT_SET_NO":999,"REV_AT_EPOCH":278,"BSTAR":-0.0070313393,"MEAN_MOTION_DOT":-0.01564206,"MEAN_MOTION_DDOT":0},{"OBJECT_NAME":"STARLINK-36915","OBJECT_ID":"2026-041X","EPOCH":"2026-03-12T06:00:00.999648","MEAN_MOTION":15.86230648,"ECCENTRICITY":7.79e-5,"INCLINATION":53.158,"RA_OF_ASC_NODE":49.158,"ARG_OF_PERICENTER":77.135,"MEAN_ANOMALY":339.1267,"EPHEMERIS_TYPE":0,"CLASSIFICATION_TYPE":"U","NORAD_CAT_ID":68061,"ELEMENT_SET_NO":999,"REV_AT_EPOCH":278,"BSTAR":-0.0070078914,"MEAN_MOTION_DOT":-0.01568227,"MEAN_MOTION_DDOT":0},{"OBJECT_NAME":"STARLINK-36952","OBJECT_ID":"2026-041Y","EPOCH":"2026-03-12T06:00:00.999648","MEAN_MOTION":15.8634779,"ECCENTRICITY":7.535e-5,"INCLINATION":53.1582,"RA_OF_ASC_NODE":49.1509,"ARG_OF_PERICENTER":88.2518,"MEAN_ANOMALY":331.684,"EPHEMERIS_TYPE":0,"CLASSIFICATION_TYPE":"U","NORAD_CAT_ID":68062,"ELEMENT_SET_NO":999,"REV_AT_EPOCH":278,"BSTAR":-0.0069950756,"MEAN_MOTION_DOT":-0.01573658,"MEAN_MOTION_DDOT":0},{"OBJECT_NAME":"STARLINK-37000","OBJECT_ID":"2026-041Z","EPOCH":"2026-03-12T06:00:00.999648","MEAN_MOTION":15.86452496,"ECCENTRICITY":7.838e-5,"INCLINATION":53.1581,"RA_OF_ASC_NODE":49.1427,"ARG_OF_PERICENTER":92.5562,"MEAN_ANOMALY":331.0803,"EPHEMERIS_TYPE":0,"CLASSIFICATION_TYPE":"U","NORAD_CAT_ID":68063,"ELEMENT_SET_NO":999,"REV_AT_EPOCH":278,"BSTAR":-0.0069491719,"MEAN_MOTION_DOT":-0.01571744,"MEAN_MOTION_DDOT":0},{"OBJECT_NAME":"STARLINK-36996","OBJECT_ID":"2026-041AA","EPOCH":"2026-03-12T06:00:00.999648","MEAN_MOTION":15.86556767,"ECCENTRICITY":7.429e-5,"INCLINATION":53.158,"RA_OF_ASC_NODE":49.1353,"ARG_OF_PERICENTER":84.0073,"MEAN_ANOMALY":343.3503,"EPHEMERIS_TYPE":0,"CLASSIFICATION_TYPE":"U","NORAD_CAT_ID":68064,"ELEMENT_SET_NO":999,"REV_AT_EPOCH":278,"BSTAR":-0.0069274799,"MEAN_MOTION_DOT":-0.01574523,"MEAN_MOTION_DDOT":0},{"OBJECT_NAME":"STARLINK-36836","OBJECT_ID":"2026-041AB","EPOCH":"2026-03-12T06:00:00.999648","MEAN_MOTION":15.86805428,"ECCENTRICITY":6.506e-5,"INCLINATION":53.158,"RA_OF_ASC_NODE":49.1202,"ARG_OF_PERICENTER":89.6379,"MEAN_ANOMALY":344.838,"EPHEMERIS_TYPE":0,"CLASSIFICATION_TYPE":"U","NORAD_CAT_ID":68065,"ELEMENT_SET_NO":999,"REV_AT_EPOCH":278,"BSTAR":-0.0068609508,"MEAN_MOTION_DOT":-0.01578166,"MEAN_MOTION_DDOT":0}]
