STARLINK-36945          
1 68050U 26041L   26071.25001157 -.01567487  00000+0 -75615-2 0  9994
2 68050  53.1589  49.2491 0000832  92.7516 279.7195 15.84666193  2780
STARLINK-35911          
1 68051U 26041M   26071.25001157 -.01574319  00000+0 -75155-2 0  9996
2 68051  53.1590  49.2337 0000629  86.9218 293.1789 15.84896080  2745
STARLINK-35808          
1 68052U 26041N   26071.25001157 -.01573194  00000+0 -74592-2 0  9991
2 68052  53.1585  49.2250 0000706  83.9546 299.8284 15.85032892  2748
STARLINK-36919          
1 68053U 26041P   26071.25001157 -.01567978  00000+0 -73911-2 0  9999
2 68053  53.1587  49.2176 0000633  80.1138 307.4460 15.85143924  2788
STARLINK-36924          
1 68054U 26041Q   26071.25001157 -.01524874  00000+0 -70750-2 0  9996
2 68054  53.1583  49.2029 0000913 115.3969 279.4164 15.85386221  2784
STARLINK-35998          
1 68055U 26041R   26071.25001157 -.01572889  00000+0 -73613-2 0  9997
2 68055  53.1586  49.2099 0000751  86.9636 304.1694 15.85298269  2743
STARLINK-36845          
1 68056U 26041S   26071.25001157 -.01573448  00000+0 -72674-2 0  9996
2 68056  53.1580  49.1953 0000773  80.7232 317.6689 15.85568527  2788
STARLINK-36954          
1 68057U 26041T   26071.25001157 -.01574764  00000+0 -72282-2 0  9994
2 68057  53.1582  49.1877 0000695  86.1380 315.8804 15.85699168  2788
STARLINK-36899          
1 68058U 26041U   26071.25001157 -.01565531  00000+0 -71267-2 0  9999
2 68058  53.1583  49.1809 0000595  83.4365 322.0185 15.85851534  2786
STARLINK-36917          
1 68059U 26041V   26071.25001157 -.01568684  00000+0 -71061-2 0  9994
2 68059  53.1579  49.1733 0000618  92.0994 317.1247 15.85956875  2786
STARLINK-36959          
1 68060U 26041W   26071.25001157 -.01564206  00000+0 -70313-2 0  9991
2 68060  53.1580  49.1652 0000734  77.1620 335.5126 15.86104126  2784
STARLINK-36915          
1 68061U 26041X   26071.25001157 -.01568227  00000+0 -70079-2 0  9998
2 68061  53.1580  49.1580 0000779  77.1350 339.1267 15.86230648  2789
STARLINK-36952          
1 68062U 26041Y   26071.25001157 -.01573658  00000+0 -69951-2 0  9990
2 68062  53.1582  49.1509 0000753  88.2518 331.6840 15.86347790  2785
STARLINK-37000          
1 68063U 26041Z   26071.25001157 -.01571744  00000+0 -69492-2 0  9995
2 68063  53.1581  49.1427 0000783  92.5562 331.0803 15.86452496  2787
STARLINK-36996          
1 68064U 26041AA  26071.25001157 -.01574523  00000+0 -69275-2 0  9993
2 68064  53.1580  49.1353 0000742  84.0073 343.3503 15.86556767  2782
STARLINK-36836          
1 68065U 26041AB  26071.25001157 -.01578166  00000+0 -68610-2 0  9993
2 68065  53.1580  49.1202 0000650  89.6379 344.8380 15.86805428  2784
